STARLINK-4340           
1 53494U 22099AF  25277.83334491  .00025712  00000+0  18188-2 0  9999
2 53494  97.6033  37.6384 0001323  79.5612 187.6716 15.04837649  5665
STARLINK-4429           
1 53495U 22099AG  25277.58152819  .00000575  00000+0  49271-4 0  9993
2 53495  97.6018  37.3772 0001153 229.3706 130.7418 15.01262282172561
STARLINK-4465           
1 53496U 22099AH  25277.83334491  .00618572  00000+0  41041-2 0  9997
2 53496  97.6552  42.7870 0000983  59.3934   6.4636 15.73719052  5891
STARLINK-4453           
1 53497U 22099AJ  25277.77778087 -.00000016  00000+0  32806-5 0  9995
2 53497  97.6003  37.5658 0002901 214.9931 145.1103 15.01261116172593
STARLINK-4439           
1 53498U 22099AK  25276.57828321  .00000417  00000+0  37005-4 0  9999
2 53498  97.6019  36.4055 0002422 213.7910 146.3160 15.01259022172412
STARLINK-4454           
1 53499U 22099AL  25277.83334491  .00032384  00000+0  22382-2 0  9998
2 53499  97.6030  37.6410 0001675  98.4813 248.8392 15.05651841  5669
STARLINK-4455           
1 53500U 22099AM  25277.75819378  .00036461  00000+0  25188-2 0  9991
2 53500  97.6043  37.5992 0001693  77.7011 282.4405 15.05640117172590
STARLINK-4434           
1 53501U 22099AN  25277.77037873 -.00000036  00000+0  17028-5 0  9993
2 53501  97.6022  37.5616 0001391 173.3768 186.7475 15.01260701172594
STARLINK-4435           
1 53502U 22099AP  25277.57597338  .00000123  00000+0  14117-4 0  9990
2 53502  97.6015  37.3682 0002551 200.5646 159.5476 15.01261846172562
STARLINK-4461           
1 53503U 22099AQ  25277.83334491  .00218342  00000+0  11721-2 0  9999
2 53503  97.6532  43.4014 0001107  40.4863  44.2823 15.79657631  5929
STARLINK-4448           
1 53504U 22099AR  25276.57433800  .00000876  00000+0  72751-4 0  9997
2 53504  97.6021  36.3874 0002543 184.0452 176.0752 15.01262027172412
STARLINK-4446           
1 53505U 22099AS  25276.30032469  .00002988  00000+0  23705-3 0  9995
2 53505  97.6024  36.1207 0000165 187.7442 172.3780 15.01261269172373
STARLINK-4437           
1 53506U 22099AT  25276.57249272  .00013195  00000+0  10291-2 0  9994
2 53506  97.6029  36.3778 0002768 163.7533 196.3780 15.01290864172414
STARLINK-4443           
1 53508U 22099AV  25276.56876960 -.00009742  00000+0 -75404-3 0  9998
2 53508  97.6024  36.3817 0000719 132.8462 227.2823 15.01309192172414
STARLINK-4402           
1 53509U 22099AW  25276.29662415 -.00002136  00000+0 -16178-3 0  9990
2 53509  97.6043  36.1176 0000398 281.7858  78.3321 15.01278616172377
STARLINK-4511           
1 53527U 22101A   25277.83334491  .00292611  00000+0  33550-2 0  9994
2 53527  53.2053   7.5813 0002725  22.2827  95.3480 15.60606900  5912
STARLINK-4503           
1 53528U 22101B   25277.71793187  .00003707  00000+0  25079-3 0  9997
2 53528  53.2169  54.3038 0001137  89.3103 270.8020 15.08854129172619
