[{"OBJECT_NAME":"STARLINK-4340","OBJECT_ID":"2022-099AF","EPOCH":"2025-10-04T20:00:01.000224","MEAN_MOTION":15.04837649,"ECCENTRICITY":0.0001323,"INCLINATION":97.6033,"RA_OF_ASC_NODE":37.6384,"ARG_OF_PERICENTER":79.5612,"MEAN_ANOMALY":187.6716,"EPHEMERIS_TYPE":0,"CLASSIFICATION_TYPE":"U","NORAD_CAT_ID":53494,"ELEMENT_SET_NO":999,"REV_AT_EPOCH":566,"BSTAR":0.0018188,"MEAN_MOTION_DOT":0.00025712,"MEAN_MOTION_DDOT":0},{"OBJECT_NAME":"STARLINK-4429","OBJECT_ID":"2022-099AG","EPOCH":"2025-10-04T13:57:24.035616","MEAN_MOTION":15.01262282,"ECCENTRICITY":0.0001153,"INCLINATION":97.6018,"RA_OF_ASC_NODE":37.3772,"ARG_OF_PERICENTER":229.3706,"MEAN_ANOMALY":130.7418,"EPHEMERIS_TYPE":0,"CLASSIFICATION_TYPE":"U","NORAD_CAT_ID":53495,"ELEMENT_SET_NO":999,"REV_AT_EPOCH":17256,"BSTAR":4.9271e-5,"MEAN_MOTION_DOT":5.75e-6,"MEAN_MOTION_DDOT":0},{"OBJECT_NAME":"STARLINK-4465","OBJECT_ID":"2022-099AH","EPOCH":"2025-10-04T20:00:01.000224","MEAN_MOTION":15.73719052,"ECCENTRICITY":9.83e-5,"INCLINATION":97.6552,"RA_OF_ASC_NODE":42.787,"ARG_OF_PERICENTER":59.3934,"MEAN_ANOMALY":6.4636,"EPHEMERIS_TYPE":0,"CLASSIFICATION_TYPE":"U","NORAD_CAT_ID":53496,"ELEMENT_SET_NO":999,"REV_AT_EPOCH":589,"BSTAR":0.0041041,"MEAN_MOTION_DOT":0.00618572,"MEAN_MOTION_DDOT":0},{"OBJECT_NAME":"STARLINK-4453","OBJECT_ID":"2022-099AJ","EPOCH":"2025-10-04T18:40:00.267168","MEAN_MOTION":15.01261116,"ECCENTRICITY":0.0002901,"INCLINATION":97.6003,"RA_OF_ASC_NODE":37.5658,"ARG_OF_PERICENTER":214.9931,"MEAN_ANOMALY":145.1103,"EPHEMERIS_TYPE":0,"CLASSIFICATION_TYPE":"U","NORAD_CAT_ID":53497,"ELEMENT_SET_NO":999,"REV_AT_EPOCH":17259,"BSTAR":3.2806e-6,"MEAN_MOTION_DOT":-1.6e-7,"MEAN_MOTION_DDOT":0},{"OBJECT_NAME":"STARLINK-4439","OBJECT_ID":"2022-099AK","EPOCH":"2025-10-03T13:52:43.669344","MEAN_MOTION":15.01259022,"ECCENTRICITY":0.00024223,"INCLINATION":97.6019,"RA_OF_ASC_NODE":36.4055,"ARG_OF_PERICENTER":213.791,"MEAN_ANOMALY":146.316,"EPHEMERIS_TYPE":0,"CLASSIFICATION_TYPE":"U","NORAD_CAT_ID":53498,"ELEMENT_SET_NO":999,"REV_AT_EPOCH":17241,"BSTAR":3.7004932e-5,"MEAN_MOTION_DOT":4.17e-6,"MEAN_MOTION_DDOT":0},{"OBJECT_NAME":"STARLINK-4454","OBJECT_ID":"2022-099AL","EPOCH":"2025-10-04T20:00:01.000224","MEAN_MOTION":15.05651841,"ECCENTRICITY":0.0001675,"INCLINATION":97.603,"RA_OF_ASC_NODE":37.641,"ARG_OF_PERICENTER":98.4813,"MEAN_ANOMALY":248.8392,"EPHEMERIS_TYPE":0,"CLASSIFICATION_TYPE":"U","NORAD_CAT_ID":53499,"ELEMENT_SET_NO":999,"REV_AT_EPOCH":566,"BSTAR":0.0022382,"MEAN_MOTION_DOT":0.00032384,"MEAN_MOTION_DDOT":0},{"OBJECT_NAME":"STARLINK-4455","OBJECT_ID":"2022-099AM","EPOCH":"2025-10-04T18:11:47.942592","MEAN_MOTION":15.05640117,"ECCENTRICITY":0.0001693,"INCLINATION":97.6043,"RA_OF_ASC_NODE":37.5992,"ARG_OF_PERICENTER":77.7011,"MEAN_ANOMALY":282.4405,"EPHEMERIS_TYPE":0,"CLASSIFICATION_TYPE":"U","NORAD_CAT_ID":53500,"ELEMENT_SET_NO":999,"REV_AT_EPOCH":17259,"BSTAR":0.0025188,"MEAN_MOTION_DOT":0.00036461,"MEAN_MOTION_DDOT":0},{"OBJECT_NAME":"STARLINK-4434","OBJECT_ID":"2022-099AN","EPOCH":"2025-10-04T18:29:20.722272","MEAN_MOTION":15.01260701,"ECCENTRICITY":0.0001391,"INCLINATION":97.6022,"RA_OF_ASC_NODE":37.5616,"ARG_OF_PERICENTER":173.3768,"MEAN_ANOMALY":186.7475,"EPHEMERIS_TYPE":0,"CLASSIFICATION_TYPE":"U","NORAD_CAT_ID":53501,"ELEMENT_SET_NO":999,"REV_AT_EPOCH":17259,"BSTAR":1.7028e-6,"MEAN_MOTION_DOT":-3.6e-7,"MEAN_MOTION_DDOT":0},{"OBJECT_NAME":"STARLINK-4435","OBJECT_ID":"2022-099AP","EPOCH":"2025-10-04T13:49:24.100032","MEAN_MOTION":15.01261846,"ECCENTRICITY":0.0002551,"INCLINATION":97.6015,"RA_OF_ASC_NODE":37.3682,"ARG_OF_PERICENTER":200.5646,"MEAN_ANOMALY":159.5476,"EPHEMERIS_TYPE":0,"CLASSIFICATION_TYPE":"U","NORAD_CAT_ID":53502,"ELEMENT_SET_NO":999,"REV_AT_EPOCH":17256,"BSTAR":1.4117e-5,"MEAN_MOTION_DOT":1.23e-6,"MEAN_MOTION_DDOT":0},{"OBJECT_NAME":"STARLINK-4461","OBJECT_ID":"2022-099AQ","EPOCH":"2025-10-04T20:00:01.000224","MEAN_MOTION":15.79657631,"ECCENTRICITY":0.0001107,"INCLINATION":97.6532,"RA_OF_ASC_NODE":43.4014,"ARG_OF_PERICENTER":40.4863,"MEAN_ANOMALY":44.2823,"EPHEMERIS_TYPE":0,"CLASSIFICATION_TYPE":"U","NORAD_CAT_ID":53503,"ELEMENT_SET_NO":999,"REV_AT_EPOCH":592,"BSTAR":0.0011721,"MEAN_MOTION_DOT":0.00218342,"MEAN_MOTION_DDOT":0},{"OBJECT_NAME":"STARLINK-4448","OBJECT_ID":"2022-099AR","EPOCH":"2025-10-03T13:47:02.803200","MEAN_MOTION":15.01262027,"ECCENTRICITY":0.00025431,"INCLINATION":97.6021,"RA_OF_ASC_NODE":36.3874,"ARG_OF_PERICENTER":184.0452,"MEAN_ANOMALY":176.0752,"EPHEMERIS_TYPE":0,"CLASSIFICATION_TYPE":"U","NORAD_CAT_ID":53504,"ELEMENT_SET_NO":999,"REV_AT_EPOCH":17241,"BSTAR":7.275121e-5,"MEAN_MOTION_DOT":8.76e-6,"MEAN_MOTION_DDOT":0},{"OBJECT_NAME":"STARLINK-4446","OBJECT_ID":"2022-099AS","EPOCH":"2025-10-03T07:12:28.053216","MEAN_MOTION":15.01261269,"ECCENTRICITY":1.654e-5,"INCLINATION":97.6024,"RA_OF_ASC_NODE":36.1207,"ARG_OF_PERICENTER":187.7442,"MEAN_ANOMALY":172.378,"EPHEMERIS_TYPE":0,"CLASSIFICATION_TYPE":"U","NORAD_CAT_ID":53505,"ELEMENT_SET_NO":999,"REV_AT_EPOCH":17237,"BSTAR":0.0002370508,"MEAN_MOTION_DOT":2.988e-5,"MEAN_MOTION_DDOT":0},{"OBJECT_NAME":"STARLINK-4437","OBJECT_ID":"2022-099AT","EPOCH":"2025-10-03T13:44:23.371008","MEAN_MOTION":15.01290864,"ECCENTRICITY":0.00027682,"INCLINATION":97.6029,"RA_OF_ASC_NODE":36.3778,"ARG_OF_PERICENTER":163.7533,"MEAN_ANOMALY":196.378,"EPHEMERIS_TYPE":0,"CLASSIFICATION_TYPE":"U","NORAD_CAT_ID":53506,"ELEMENT_SET_NO":999,"REV_AT_EPOCH":17241,"BSTAR":0.001029065,"MEAN_MOTION_DOT":0.00013195,"MEAN_MOTION_DDOT":0},{"OBJECT_NAME":"STARLINK-4443","OBJECT_ID":"2022-099AV","EPOCH":"2025-10-03T13:39:01.693440","MEAN_MOTION":15.01309192,"ECCENTRICITY":7.199e-5,"INCLINATION":97.6024,"RA_OF_ASC_NODE":36.3817,"ARG_OF_PERICENTER":132.8462,"MEAN_ANOMALY":227.2823,"EPHEMERIS_TYPE":0,"CLASSIFICATION_TYPE":"U","NORAD_CAT_ID":53508,"ELEMENT_SET_NO":999,"REV_AT_EPOCH":17241,"BSTAR":-0.00075403878,"MEAN_MOTION_DOT":-9.742e-5,"MEAN_MOTION_DDOT":0},{"OBJECT_NAME":"STARLINK-4402","OBJECT_ID":"2022-099AW","EPOCH":"2025-10-03T07:07:08.326560","MEAN_MOTION":15.01278616,"ECCENTRICITY":3.981e-5,"INCLINATION":97.6043,"RA_OF_ASC_NODE":36.1176,"ARG_OF_PERICENTER":281.7858,"MEAN_ANOMALY":78.3321,"EPHEMERIS_TYPE":0,"CLASSIFICATION_TYPE":"U","NORAD_CAT_ID":53509,"ELEMENT_SET_NO":999,"REV_AT_EPOCH":17237,"BSTAR":-0.00016178008,"MEAN_MOTION_DOT":-2.136e-5,"MEAN_MOTION_DDOT":0},{"OBJECT_NAME":"STARLINK-4511","OBJECT_ID":"2022-101A","EPOCH":"2025-10-04T20:00:01.000224","MEAN_MOTION":15.606069,"ECCENTRICITY":0.0002725,"INCLINATION":53.2053,"RA_OF_ASC_NODE":7.5813,"ARG_OF_PERICENTER":22.2827,"MEAN_ANOMALY":95.348,"EPHEMERIS_TYPE":0,"CLASSIFICATION_TYPE":"U","NORAD_CAT_ID":53527,"ELEMENT_SET_NO":999,"REV_AT_EPOCH":591,"BSTAR":0.003355,"MEAN_MOTION_DOT":0.00292611,"MEAN_MOTION_DDOT":0},{"OBJECT_NAME":"STARLINK-4503","OBJECT_ID":"2022-101B","EPOCH":"2025-10-04T17:13:49.313568","MEAN_MOTION":15.08854129,"ECCENTRICITY":0.0001137,"INCLINATION":53.2169,"RA_OF_ASC_NODE":54.3038,"ARG_OF_PERICENTER":89.3103,"MEAN_ANOMALY":270.802,"EPHEMERIS_TYPE":0,"CLASSIFICATION_TYPE":"U","NORAD_CAT_ID":53528,"ELEMENT_SET_NO":999,"REV_AT_EPOCH":17261,"BSTAR":0.00025079,"MEAN_MOTION_DOT":3.707e-5,"MEAN_MOTION_DDOT":0}]
